FLOCK 4Q-15             
1 58319U 23174BR  26063.19537836  .00158092  00000+0  20137-2 0  9991
2 58319  97.3920 153.8583 0005086 168.3255 191.8120 15.58782342129616
FLOCK 4Q-2              
1 58320U 23174BS  26063.17053087  .00039230  00000+0  83937-3 0  9992
2 58320  97.3876 149.4858 0007979 155.8348 204.3276 15.44669622129365
FLOCK 4Q-9              
1 58322U 23174BU  26063.18826450  .00037584  00000+0  81396-3 0  9994
2 58322  97.3912 149.5477 0008025 156.6076 203.5538 15.44319980129356
FLOCK 4Q-4              
1 58327U 23174BZ  26063.12366810  .00034719  00000+0  76188-3 0  9992
2 58327  97.3870 148.8613 0007430 174.3089 185.8245 15.43951014129321
FLOCK 4Q-13             
1 58328U 23174CA  26063.16762867  .00041543  00000+0  83244-3 0  9993
2 58328  97.4029 151.2910 0007509 168.9546 191.1870 15.46586347129411
FLOCK 4Q-21             
1 58329U 23174CB  26062.79180918  .00065431  00000+0  91146-3 0  9995
2 58329  97.3944 153.9029 0005779 175.8867 184.2436 15.56707300129570
FLOCK 4BE-18            
1 60480U 24149N   26063.14776441  .00029156  00000+0  77994-3 0  9990
2 60480  97.3786 146.0469 0003069 267.2600  92.8293 15.38005716 86149
FLOCK 4BE-7             
1 60481U 24149P   26063.15504295  .00023302  00000+0  66481-3 0  9994
2 60481  97.3818 145.6559 0002033 257.1049 102.9968 15.36048218 86106
FLOCK 4BE-26            
1 60484U 24149S   26063.18132475  .00129968  00000+0  28980-2 0  9993
2 60484  97.3773 145.9586 0005920 255.9582 104.1008 15.43066089 86145
FLOCK 4BE-36            
1 60486U 24149U   26063.17996232  .00032205  00000+0  83725-3 0  9999
2 60486  97.3795 146.6172 0002805 280.0207  80.0722 15.38866948 86187
FLOCK 4BE-25            
1 60487U 24149V   26063.16796000  .00023594  00000+0  67879-3 0  9993
2 60487  97.3853 145.8175 0001237 244.2774 115.8342 15.35785137 86100
FLOCK 4BE-31            
1 60488U 24149W   26063.15173749  .00033399  00000+0  84647-3 0  9998
2 60488  97.3851 147.2011 0001711 273.5959  86.5091 15.39642385 86196
FLOCK 4BE-20            
1 60489U 24149X   26063.14357479  .00020670  00000+0  60887-3 0  9990
2 60489  97.3760 144.9353 0002438 271.9572  88.1392 15.35066471 86081
FLOCK 4BE-23            
1 60490U 24149Y   26063.17418013  .00022202  00000+0  66114-3 0  9999
2 60490  97.3839 145.2847 0002075 284.2604  75.8409 15.34709658 86073
FLOCK 4BE-15            
1 60491U 24149Z   26063.18656731  .00110485  00000+0  27919-2 0  9992
2 60491  97.3776 146.3134 0002890 327.6143  32.4924 15.39370368 86179
FLOCK 4BE-17            
1 60492U 24149AA  26063.15914494  .00024017  00000+0  67724-3 0  9997
2 60492  97.3834 145.9357 0002063 260.1043  99.9968 15.36408678 86112
FLOCK 4BE-22            
1 60494U 24149AC  26063.16311391  .00029846  00000+0  81240-3 0  9991
2 60494  97.3786 145.9856 0002723 287.5241  72.5705 15.37463328 86143
