[{"OBJECT_NAME":"FLOCK 4Q-15","OBJECT_ID":"2023-174BR","EPOCH":"2026-03-04T04:41:20.690304","MEAN_MOTION":15.58782342,"ECCENTRICITY":0.0005086,"INCLINATION":97.392,"RA_OF_ASC_NODE":153.8583,"ARG_OF_PERICENTER":168.3255,"MEAN_ANOMALY":191.812,"EPHEMERIS_TYPE":0,"CLASSIFICATION_TYPE":"U","NORAD_CAT_ID":58319,"ELEMENT_SET_NO":999,"REV_AT_EPOCH":12961,"BSTAR":0.0020137,"MEAN_MOTION_DOT":0.00158092,"MEAN_MOTION_DDOT":0},{"OBJECT_NAME":"FLOCK 4Q-2","OBJECT_ID":"2023-174BS","EPOCH":"2026-03-04T04:05:33.867168","MEAN_MOTION":15.44669622,"ECCENTRICITY":0.0007979,"INCLINATION":97.3876,"RA_OF_ASC_NODE":149.4858,"ARG_OF_PERICENTER":155.8348,"MEAN_ANOMALY":204.3276,"EPHEMERIS_TYPE":0,"CLASSIFICATION_TYPE":"U","NORAD_CAT_ID":58320,"ELEMENT_SET_NO":999,"REV_AT_EPOCH":12936,"BSTAR":0.00083937,"MEAN_MOTION_DOT":0.0003923,"MEAN_MOTION_DDOT":0},{"OBJECT_NAME":"FLOCK 4Q-9","OBJECT_ID":"2023-174BU","EPOCH":"2026-03-04T04:31:06.052800","MEAN_MOTION":15.4431998,"ECCENTRICITY":0.0008025,"INCLINATION":97.3912,"RA_OF_ASC_NODE":149.5477,"ARG_OF_PERICENTER":156.6076,"MEAN_ANOMALY":203.5538,"EPHEMERIS_TYPE":0,"CLASSIFICATION_TYPE":"U","NORAD_CAT_ID":58322,"ELEMENT_SET_NO":999,"REV_AT_EPOCH":12935,"BSTAR":0.00081396,"MEAN_MOTION_DOT":0.00037584,"MEAN_MOTION_DDOT":0},{"OBJECT_NAME":"FLOCK 4Q-4","OBJECT_ID":"2023-174BZ","EPOCH":"2026-03-04T02:58:04.923840","MEAN_MOTION":15.43951014,"ECCENTRICITY":0.000743,"INCLINATION":97.387,"RA_OF_ASC_NODE":148.8613,"ARG_OF_PERICENTER":174.3089,"MEAN_ANOMALY":185.8245,"EPHEMERIS_TYPE":0,"CLASSIFICATION_TYPE":"U","NORAD_CAT_ID":58327,"ELEMENT_SET_NO":999,"REV_AT_EPOCH":12932,"BSTAR":0.00076188,"MEAN_MOTION_DOT":0.00034719,"MEAN_MOTION_DDOT":0},{"OBJECT_NAME":"FLOCK 4Q-13","OBJECT_ID":"2023-174CA","EPOCH":"2026-03-04T04:01:23.117088","MEAN_MOTION":15.46586347,"ECCENTRICITY":0.0007509,"INCLINATION":97.4029,"RA_OF_ASC_NODE":151.291,"ARG_OF_PERICENTER":168.9546,"MEAN_ANOMALY":191.187,"EPHEMERIS_TYPE":0,"CLASSIFICATION_TYPE":"U","NORAD_CAT_ID":58328,"ELEMENT_SET_NO":999,"REV_AT_EPOCH":12941,"BSTAR":0.00083244,"MEAN_MOTION_DOT":0.00041543,"MEAN_MOTION_DDOT":0},{"OBJECT_NAME":"FLOCK 4Q-21","OBJECT_ID":"2023-174CB","EPOCH":"2026-03-03T19:00:12.313152","MEAN_MOTION":15.567073,"ECCENTRICITY":0.0005779,"INCLINATION":97.3944,"RA_OF_ASC_NODE":153.9029,"ARG_OF_PERICENTER":175.8867,"MEAN_ANOMALY":184.2436,"EPHEMERIS_TYPE":0,"CLASSIFICATION_TYPE":"U","NORAD_CAT_ID":58329,"ELEMENT_SET_NO":999,"REV_AT_EPOCH":12957,"BSTAR":0.00091146,"MEAN_MOTION_DOT":0.00065431,"MEAN_MOTION_DDOT":0},{"OBJECT_NAME":"FLOCK 4BE-18","OBJECT_ID":"2024-149N","EPOCH":"2026-03-04T03:32:46.845024","MEAN_MOTION":15.38005716,"ECCENTRICITY":0.0003069,"INCLINATION":97.3786,"RA_OF_ASC_NODE":146.0469,"ARG_OF_PERICENTER":267.26,"MEAN_ANOMALY":92.8293,"EPHEMERIS_TYPE":0,"CLASSIFICATION_TYPE":"U","NORAD_CAT_ID":60480,"ELEMENT_SET_NO":999,"REV_AT_EPOCH":8614,"BSTAR":0.00077994,"MEAN_MOTION_DOT":0.00029156,"MEAN_MOTION_DDOT":0},{"OBJECT_NAME":"FLOCK 4BE-7","OBJECT_ID":"2024-149P","EPOCH":"2026-03-04T03:43:15.710880","MEAN_MOTION":15.36048218,"ECCENTRICITY":0.0002033,"INCLINATION":97.3818,"RA_OF_ASC_NODE":145.6559,"ARG_OF_PERICENTER":257.1049,"MEAN_ANOMALY":102.9968,"EPHEMERIS_TYPE":0,"CLASSIFICATION_TYPE":"U","NORAD_CAT_ID":60481,"ELEMENT_SET_NO":999,"REV_AT_EPOCH":8610,"BSTAR":0.00066481,"MEAN_MOTION_DOT":0.00023302,"MEAN_MOTION_DDOT":0},{"OBJECT_NAME":"FLOCK 4BE-26","OBJECT_ID":"2024-149S","EPOCH":"2026-03-04T04:21:06.458400","MEAN_MOTION":15.43066089,"ECCENTRICITY":0.000592,"INCLINATION":97.3773,"RA_OF_ASC_NODE":145.9586,"ARG_OF_PERICENTER":255.9582,"MEAN_ANOMALY":104.1008,"EPHEMERIS_TYPE":0,"CLASSIFICATION_TYPE":"U","NORAD_CAT_ID":60484,"ELEMENT_SET_NO":999,"REV_AT_EPOCH":8614,"BSTAR":0.002898,"MEAN_MOTION_DOT":0.00129968,"MEAN_MOTION_DDOT":0},{"OBJECT_NAME":"FLOCK 4BE-36","OBJECT_ID":"2024-149U","EPOCH":"2026-03-04T04:19:08.744448","MEAN_MOTION":15.38866948,"ECCENTRICITY":0.0002805,"INCLINATION":97.3795,"RA_OF_ASC_NODE":146.6172,"ARG_OF_PERICENTER":280.0207,"MEAN_ANOMALY":80.0722,"EPHEMERIS_TYPE":0,"CLASSIFICATION_TYPE":"U","NORAD_CAT_ID":60486,"ELEMENT_SET_NO":999,"REV_AT_EPOCH":8618,"BSTAR":0.00083725,"MEAN_MOTION_DOT":0.00032205,"MEAN_MOTION_DDOT":0},{"OBJECT_NAME":"FLOCK 4BE-25","OBJECT_ID":"2024-149V","EPOCH":"2026-03-04T04:01:51.744000","MEAN_MOTION":15.35785137,"ECCENTRICITY":0.0001237,"INCLINATION":97.3853,"RA_OF_ASC_NODE":145.8175,"ARG_OF_PERICENTER":244.2774,"MEAN_ANOMALY":115.8342,"EPHEMERIS_TYPE":0,"CLASSIFICATION_TYPE":"U","NORAD_CAT_ID":60487,"ELEMENT_SET_NO":999,"REV_AT_EPOCH":8610,"BSTAR":0.00067879,"MEAN_MOTION_DOT":0.00023594,"MEAN_MOTION_DDOT":0},{"OBJECT_NAME":"FLOCK 4BE-31","OBJECT_ID":"2024-149W","EPOCH":"2026-03-04T03:38:30.119136","MEAN_MOTION":15.39642385,"ECCENTRICITY":0.0001711,"INCLINATION":97.3851,"RA_OF_ASC_NODE":147.2011,"ARG_OF_PERICENTER":273.5959,"MEAN_ANOMALY":86.5091,"EPHEMERIS_TYPE":0,"CLASSIFICATION_TYPE":"U","NORAD_CAT_ID":60488,"ELEMENT_SET_NO":999,"REV_AT_EPOCH":8619,"BSTAR":0.00084647,"MEAN_MOTION_DOT":0.00033399,"MEAN_MOTION_DDOT":0},{"OBJECT_NAME":"FLOCK 4BE-20","OBJECT_ID":"2024-149X","EPOCH":"2026-03-04T03:26:44.861856","MEAN_MOTION":15.35066471,"ECCENTRICITY":0.0002438,"INCLINATION":97.376,"RA_OF_ASC_NODE":144.9353,"ARG_OF_PERICENTER":271.9572,"MEAN_ANOMALY":88.1392,"EPHEMERIS_TYPE":0,"CLASSIFICATION_TYPE":"U","NORAD_CAT_ID":60489,"ELEMENT_SET_NO":999,"REV_AT_EPOCH":8608,"BSTAR":0.00060887,"MEAN_MOTION_DOT":0.0002067,"MEAN_MOTION_DDOT":0},{"OBJECT_NAME":"FLOCK 4BE-23","OBJECT_ID":"2024-149Y","EPOCH":"2026-03-04T04:10:49.163232","MEAN_MOTION":15.34709658,"ECCENTRICITY":0.0002075,"INCLINATION":97.3839,"RA_OF_ASC_NODE":145.2847,"ARG_OF_PERICENTER":284.2604,"MEAN_ANOMALY":75.8409,"EPHEMERIS_TYPE":0,"CLASSIFICATION_TYPE":"U","NORAD_CAT_ID":60490,"ELEMENT_SET_NO":999,"REV_AT_EPOCH":8607,"BSTAR":0.00066114,"MEAN_MOTION_DOT":0.00022202,"MEAN_MOTION_DDOT":0},{"OBJECT_NAME":"FLOCK 4BE-15","OBJECT_ID":"2024-149Z","EPOCH":"2026-03-04T04:28:39.415584","MEAN_MOTION":15.39370368,"ECCENTRICITY":0.000289,"INCLINATION":97.3776,"RA_OF_ASC_NODE":146.3134,"ARG_OF_PERICENTER":327.6143,"MEAN_ANOMALY":32.4924,"EPHEMERIS_TYPE":0,"CLASSIFICATION_TYPE":"U","NORAD_CAT_ID":60491,"ELEMENT_SET_NO":999,"REV_AT_EPOCH":8617,"BSTAR":0.0027919,"MEAN_MOTION_DOT":0.00110485,"MEAN_MOTION_DDOT":0},{"OBJECT_NAME":"FLOCK 4BE-17","OBJECT_ID":"2024-149AA","EPOCH":"2026-03-04T03:49:10.122816","MEAN_MOTION":15.36408678,"ECCENTRICITY":0.0002063,"INCLINATION":97.3834,"RA_OF_ASC_NODE":145.9357,"ARG_OF_PERICENTER":260.1043,"MEAN_ANOMALY":99.9968,"EPHEMERIS_TYPE":0,"CLASSIFICATION_TYPE":"U","NORAD_CAT_ID":60492,"ELEMENT_SET_NO":999,"REV_AT_EPOCH":8611,"BSTAR":0.00067724,"MEAN_MOTION_DOT":0.00024017,"MEAN_MOTION_DDOT":0},{"OBJECT_NAME":"FLOCK 4BE-22","OBJECT_ID":"2024-149AC","EPOCH":"2026-03-04T03:54:53.041824","MEAN_MOTION":15.37463328,"ECCENTRICITY":0.0002723,"INCLINATION":97.3786,"RA_OF_ASC_NODE":145.9856,"ARG_OF_PERICENTER":287.5241,"MEAN_ANOMALY":72.5705,"EPHEMERIS_TYPE":0,"CLASSIFICATION_TYPE":"U","NORAD_CAT_ID":60494,"ELEMENT_SET_NO":999,"REV_AT_EPOCH":8614,"BSTAR":0.0008124,"MEAN_MOTION_DOT":0.00029846,"MEAN_MOTION_DDOT":0}]
